[{"OBJECT_NAME":"STARLINK-3218","OBJECT_ID":"2021-115B","EPOCH":"2026-03-09T22:33:44.775648","MEAN_MOTION":15.08838215,"ECCENTRICITY":0.00011522,"INCLINATION":53.2174,"RA_OF_ASC_NODE":148.1012,"ARG_OF_PERICENTER":98.2891,"MEAN_ANOMALY":261.8232,"EPHEMERIS_TYPE":0,"CLASSIFICATION_TYPE":"U","NORAD_CAT_ID":49725,"ELEMENT_SET_NO":999,"REV_AT_EPOCH":23557,"BSTAR":6.8654591e-5,"MEAN_MOTION_DOT":8.05e-6,"MEAN_MOTION_DDOT":0},{"OBJECT_NAME":"RAAF M1","OBJECT_ID":"2018-099X","EPOCH":"2026-03-09T15:51:10.230048","MEAN_MOTION":15.07065376,"ECCENTRICITY":0.00134971,"INCLINATION":97.4534,"RA_OF_ASC_NODE":114.8325,"ARG_OF_PERICENTER":21.6261,"MEAN_ANOMALY":338.5534,"EPHEMERIS_TYPE":0,"CLASSIFICATION_TYPE":"U","NORAD_CAT_ID":43779,"ELEMENT_SET_NO":999,"REV_AT_EPOCH":39714,"BSTAR":0.00026511092,"MEAN_MOTION_DOT":3.923e-5,"MEAN_MOTION_DDOT":0}]
